NORAD_CAT_ID,OBJECT_NAME,OBJECT_TYPE,EPOCH,MEAN_MOTION,ECCENTRICITY,INCLINATION,RA_OF_ASC_NODE,ARG_OF_PERICENTER,MEAN_ANOMALY,BSTAR,MEAN_MOTION_DOT,MEAN_MOTION_DDOT,TLE_LINE0,TLE_LINE1,TLE_LINE2,SEMIMAJOR_AXIS,PERIOD,APOGEE,PERIGEE,DECAYED
56802.0,STARLINK-6070,PAYLOAD,2024-05-31 10:47:11,14.98341842,0.0002546,69.999,156.3644,265.0078,95.079,-0.00028834,-3.533e-05,0.0,0 STARLINK-6070,1 56802U 23078AM  24152.44944374 -.00003533  00000-0 -28834-3 0  9998,2 56802  69.9990 156.3644 0002546 265.0078  95.0790 14.98341842 56228,6950.156,96.106,573.791,570.252,0.0
56802.0,STARLINK-6070,PAYLOAD,2024-05-31 17:11:43,14.98344573,0.0002907,69.9983,155.6898,272.6978,87.3848,-0.00022406,-2.766e-05,0.0,0 STARLINK-6070,1 56802U 23078AM  24152.71647781 -.00002766  00000-0 -22406-3 0  9996,2 56802  69.9983 155.6898 0002907 272.6978  87.3848 14.98344573 56263,6950.148,96.106,574.033,569.992,0.0
56802.0,STARLINK-6070,PAYLOAD,2024-06-01 04:24:40,14.98331056,0.000288,69.9982,154.5123,267.3478,92.7352,-6.1756e-08,-9.4e-07,0.0,0 STARLINK-6070,1 56802U 23078AM  24153.18379836 -.00000094  00000-0 -61756-7 0  9998,2 56802  69.9982 154.5123 0002880 267.3478  92.7352 14.98331056 56595,6950.19,96.107,574.056,570.053,0.0
56802.0,STARLINK-6070,PAYLOAD,2024-06-01 10:49:12,14.98331354,0.0002872,69.9982,153.839,267.0283,93.0547,4.284e-06,-4.2e-07,0.0,0 STARLINK-6070,1 56802U 23078AM  24153.45083775 -.00000042  00000-0  42840-5 0  9995,2 56802  69.9982 153.8390 0002872 267.0283  93.0547 14.98331354 56372,6950.189,96.107,574.05,570.058,0.0
56802.0,STARLINK-6070,PAYLOAD,2024-06-02 04:26:41,14.98326718,0.000289,69.9983,151.9876,267.9866,92.0962,-1.1524e-05,-2.3e-06,0.0,0 STARLINK-6070,1 56802U 23078AM  24154.18520122 -.00000230  00000-0 -11524-4 0  9992,2 56802  69.9983 151.9876 0002890 267.9866  92.0962 14.98326718 56746,6950.203,96.107,574.077,570.059,0.0
56802.0,STARLINK-6070,PAYLOAD,2024-06-02 09:15:05,14.98327188,0.0002886,69.9983,151.4826,268.0408,92.0421,-6.0489e-06,-1.65e-06,0.0,0 STARLINK-6070,1 56802U 23078AM  24154.38548104 -.00000165  00000-0 -60489-5 0  9996,2 56802  69.9983 151.4826 0002886 268.0408  92.0421 14.98327188 56512,6950.202,96.107,574.072,570.061,0.0
56802.0,STARLINK-6070,PAYLOAD,2024-06-03 04:28:42,14.98327545,0.0002888,69.9984,149.4627,268.0382,92.0446,-3.0902e-05,-4.62e-06,0.0,0 STARLINK-6070,1 56802U 23078AM  24155.18660231 -.00000462  00000-0 -30902-4 0  9997,2 56802  69.9984 149.4627 0002888 268.0382  92.0446 14.98327545 56897,6950.2,96.107,574.073,570.058,0.0
56802.0,STARLINK-6070,PAYLOAD,2024-06-03 09:17:06,14.98328203,0.0002893,69.9984,148.9578,268.1728,91.9099,-2.503e-05,-3.92e-06,0.0,0 STARLINK-6070,1 56802U 23078AM  24155.38688196 -.00000392  00000-0 -25030-4 0  9997,2 56802  69.9984 148.9578 0002893 268.1728  91.9099 14.98328203 56666,6950.198,96.107,574.074,570.053,0.0
56802.0,STARLINK-6070,PAYLOAD,2024-06-03 22:06:11,14.98325312,0.0002849,69.9987,147.6116,267.9798,92.1035,-1.964e-05,-3.27e-06,0.0,0 STARLINK-6070,1 56802U 23078AM  24155.92096442 -.00000327  00000-0 -19640-4 0  9992,2 56802  69.9987 147.6116 0002849 267.9798  92.1035 14.98325312 56748,6950.207,96.107,574.053,570.092,0.0
56802.0,STARLINK-6070,PAYLOAD,2024-06-04 02:54:36,14.98318543,0.0002885,69.9986,147.1062,267.7605,92.3224,-7.4962e-05,-9.87e-06,0.0,0 STARLINK-6070,1 56802U 23078AM  24156.12125114 -.00000987  00000-0 -74962-4 0  9994,2 56802  69.9986 147.1062 0002885 267.7605  92.3224 14.98318543 57030,6950.228,96.108,574.098,570.088,0.0
56802.0,STARLINK-6070,PAYLOAD,2024-06-04 09:19:08,14.98315808,0.0002862,69.9988,146.4329,267.0704,93.0127,-0.00010084,-1.296e-05,0.0,0 STARLINK-6070,1 56802U 23078AM  24156.38829562 -.00001296  00000-0 -10084-3 0  9998,2 56802  69.9988 146.4329 0002862 267.0704  93.0127 14.98315808 56814,6950.237,96.108,574.091,570.113,0.0
56802.0,STARLINK-6070,PAYLOAD,2024-06-05 04:32:45,14.98322353,0.0002894,69.9989,144.4131,267.1914,92.8914,-1.1141e-05,-2.26e-06,0.0,0 STARLINK-6070,1 56802U 23078AM  24157.18941372 -.00000226  00000-0 -11141-4 0  9999,2 56802  69.9989 144.4131 0002894 267.1914  92.8914 14.98322353 57199,6950.217,96.107,574.093,570.07,0.0
56802.0,STARLINK-6070,PAYLOAD,2024-06-05 09:21:09,14.98322243,0.0002895,69.9989,143.9081,267.273,92.8098,-1.0328e-05,-2.16e-06,0.0,0 STARLINK-6070,1 56802U 23078AM  24157.38969486 -.00000216  00000-0 -10328-4 0  9992,2 56802  69.9989 143.9081 0002895 267.2730  92.8098 14.98322243 56960,6950.217,96.107,574.094,570.07,0.0
56802.0,STARLINK-6070,PAYLOAD,2024-06-05 22:10:13,14.98322281,0.0003048,69.9986,142.561,267.0901,92.991,0.00011039,1.224e-05,0.0,0 STARLINK-6070,1 56802U 23078AM  24157.92377247  .00001224  00000-0  11039-3 0  9997,2 56802  69.9986 142.5610 0003048 267.0901  92.9910 14.98322281 57045,6950.217,96.107,574.2,569.963,0.0
56802.0,STARLINK-6070,PAYLOAD,2024-06-06 04:34:46,14.9832355,0.0003072,69.9987,141.8878,266.9731,93.1077,0.00013185,1.48e-05,0.0,0 STARLINK-6070,1 56802U 23078AM  24158.19081219  .00001480  00000-0  13185-3 0  9996,2 56802  69.9987 141.8878 0003072 266.9731  93.1077 14.98323550 57340,6950.213,96.107,574.213,569.943,0.0
56802.0,STARLINK-6070,PAYLOAD,2024-06-06 09:23:10,14.98327356,0.0003016,69.9989,141.3831,266.8191,93.2623,0.00016281,1.85e-05,0.0,0 STARLINK-6070,1 56802U 23078AM  24158.39108940  .00001850  00000-0  16281-3 0  9990,2 56802  69.9989 141.3831 0003016 266.8191  93.2623 14.98327356 57114,6950.201,96.107,574.162,569.97,0.0
56802.0,STARLINK-6070,PAYLOAD,2024-06-07 07:49:01,14.98341237,0.000307,69.9988,139.0265,268.4988,91.582,0.00016083,1.827e-05,0.0,0 STARLINK-6070,1 56802U 23078AM  24159.32571710  .00001827  00000-0  16083-3 0  9997,2 56802  69.9988 139.0265 0003070 268.4988  91.5820 14.98341237 57518,6950.158,96.106,574.157,569.889,0.0
56802.0,STARLINK-6070,PAYLOAD,2024-06-07 15:49:41,14.98384334,0.0002882,70.0002,138.1831,280.6518,79.4317,-0.00069647,-8.405e-05,0.0,0 STARLINK-6070,1 56802U 23078AM  24159.65950711 -.00008405  00000-0 -69647-3 0  9990,2 56802  70.0002 138.1831 0002882 280.6518  79.4317 14.98384334 57568,6950.025,96.104,573.893,569.887,0.0
56802.0,STARLINK-6070,PAYLOAD,2024-06-07 22:14:14,14.98339558,0.0002609,70.0004,137.5113,269.4433,90.6427,4.5224e-05,4.47e-06,0.0,0 STARLINK-6070,1 56802U 23078AM  24159.92655859  .00000447  00000-0  45224-4 0  9997,2 56802  70.0004 137.5113 0002609 269.4433  90.6427 14.98339558 57345,6950.163,96.106,573.842,570.215,0.0
56802.0,STARLINK-6070,PAYLOAD,2024-06-08 04:38:46,14.98336554,0.0002901,69.9993,136.8397,268.1516,91.931,2.1874e-05,1.68e-06,0.0,0 STARLINK-6070,1 56802U 23078AM  24160.19359877  .00000168  00000-0  21874-4 0  9994,2 56802  69.9993 136.8397 0002901 268.1516  91.9310 14.98336554 57649,6950.173,96.107,574.054,570.021,0.0
56802.0,STARLINK-6070,PAYLOAD,2024-06-08 07:51:02,14.98337704,0.0002864,69.9993,136.5028,267.7489,92.3343,2.2891e-05,1.8e-06,0.0,0 STARLINK-6070,1 56802U 23078AM  24160.32711713  .00000180  00000-0  22891-4 0  9994,2 56802  69.9993 136.5028 0002864 267.7489  92.3343 14.98337704 57402,6950.169,96.107,574.025,570.044,0.0
56802.0,STARLINK-6070,PAYLOAD,2024-06-08 15:51:43,14.98335033,0.0002877,70.0,135.6583,273.867,86.216,-9.4208e-05,-1.217e-05,0.0,0 STARLINK-6070,1 56802U 23078AM  24160.66092041 -.00001217  00000-0 -94208-4 0  9992,2 56802  70.0000 135.6583 0002877 273.8670  86.2160 14.98335033 57451,6950.177,96.107,574.042,570.043,0.0
56802.0,STARLINK-6070,PAYLOAD,2024-06-09 04:40:48,14.98333881,0.0002988,69.9989,134.3129,270.1869,89.8947,-0.000184,-2.288e-05,0.0,0 STARLINK-6070,1 56802U 23078AM  24161.19500145 -.00002288  00000-0 -18400-3 0  9998,2 56802  69.9989 134.3129 0002988 270.1869  89.8947 14.98333881 57797,6950.181,96.107,574.123,569.969,0.0
56802.0,STARLINK-6070,PAYLOAD,2024-06-09 07:53:04,14.98333773,0.000296,69.9991,133.977,272.2056,87.8765,-0.00016904,-2.11e-05,0.0,0 STARLINK-6070,1 56802U 23078AM  24161.32852096 -.00002110  00000-0 -16904-3 0  9999,2 56802  69.9991 133.9770 0002960 272.2056  87.8765 14.98333773 57558,6950.181,96.107,574.103,569.989,0.0
56802.0,STARLINK-6070,PAYLOAD,2024-06-09 15:53:44,14.98335347,0.000296,69.9991,133.1354,270.963,89.119,-0.00012966,-1.64e-05,0.0,0 STARLINK-6070,1 56802U 23078AM  24161.66231780 -.00001640  00000-0 -12966-3 0  9998,2 56802  69.9991 133.1354 0002960 270.9630  89.1190 14.98335347 57603,6950.176,96.107,574.099,569.984,0.0
56802.0,STARLINK-6070,PAYLOAD,2024-06-10 04:42:48,14.98335463,0.0002994,69.9991,131.7886,269.6461,90.4355,-1.4613e-05,-2.67e-06,0.0,0 STARLINK-6070,1 56802U 23078AM  24162.19639335 -.00000267  00000-0 -14613-4 0  9991,2 56802  69.9991 131.7886 0002994 269.6461  90.4355 14.98335463 57945,6950.176,96.107,574.122,569.96,0.0
56802.0,STARLINK-6070,PAYLOAD,2024-06-10 07:55:04,14.98335976,0.0002989,69.9991,131.4519,269.6722,90.4095,-6.991e-06,-1.76e-06,0.0,0 STARLINK-6070,1 56802U 23078AM  24162.32991240 -.00000176  00000-0 -69910-5 0  9992,2 56802  69.9991 131.4519 0002989 269.6722  90.4095 14.98335976 57703,6950.174,96.107,574.117,569.962,0.0
56802.0,STARLINK-6070,PAYLOAD,2024-06-10 22:20:17,14.98327026,0.000298,69.9993,129.9371,269.8669,90.2148,4.1789e-05,4.06e-06,0.0,0 STARLINK-6070,1 56802U 23078AM  24162.93075603  .00000406  00000-0  41789-4 0  9992,2 56802  69.9993 129.9371 0002980 269.8669  90.2148 14.98327026 57799,6950.202,96.107,574.138,569.996,0.0
56802.0,STARLINK-6070,PAYLOAD,2024-06-11 04:44:49,14.98329601,0.0003033,69.9991,129.2641,269.8456,90.2355,5.8521e-05,6.05e-06,0.0,0 STARLINK-6070,1 56802U 23078AM  24163.19779422  .00000605  00000-0  58521-4 0  9994,2 56802  69.9991 129.2641 0003033 269.8456  90.2355 14.98329601 58099,6950.194,96.107,574.167,569.951,0.0
56802.0,STARLINK-6070,PAYLOAD,2024-06-11 07:57:05,14.9833029,0.0003023,69.9992,128.9274,269.8854,90.1959,6.4015e-05,6.71e-06,0.0,0 STARLINK-6070,1 56802U 23078AM  24163.33131362  .00000671  00000-0  64015-4 0  9993,2 56802  69.9992 128.9274 0003023 269.8854  90.1959 14.98330290 57857,6950.192,96.107,574.158,569.956,0.0
